StationNbr,Name,City,RegionalOffice,County,ConnectDate,DisconnectDate,IsActive,IsEtoStation,Elevation,GroundCover,Lat,Long,ZipCodes,SitingDesc,ETo_Qc_fraction,Pr_Qc_fraction,Rs_Qc_fraction,Tmax_Qc_fraction,Tmin_Qc_fraction,Tdew_Qc_fraction,Perc_month_missing_ETo_10+,Siting_Criteria,Fetch_perc
2,FivePoints,Five Points,South Central Region Office,Fresno,6/7/1982,12/31/2050,True,True,285,Grass,36.336222,-120.11291,['93624'],,0.9809863339275104,0.9797979797979798,0.8716577540106951,0.9756387403446227,0.9578134284016637,0.9494949494949495,0.1042471042471042,GOOD,0.9364197530864198
6,Davis,Davis,North Central Region Office,Yolo,7/17/1982,12/31/2050,True,True,60,Grass,38.535694,-121.77636,"['95618', '95617', '95616']",,0.9786096256684492,0.98989898989899,0.9500891265597148,0.9750445632798574,0.9435531788472965,0.9358288770053476,0.0463320463320463,GOOD,1.0
7,Firebaugh/Telles,Firebaugh,South Central Region Office,Fresno,9/22/1982,12/31/2050,True,True,185,Grass,36.851222,-120.59092,"['93622', '93665', '93620']",,0.9887106357694593,0.9732620320855615,0.8110516934046346,0.9607843137254902,0.9292929292929293,0.9102792632204397,0.2355212355212355,BAD,0.3916049382716049
12,Durham,Chico,Northern Region Office,Butte,10/19/1982,12/31/2050,True,True,130,Grass,39.608639,-121.82443,"['95974', '95958', '95938']",,0.9310754604872252,0.9904931669637552,0.9566250742721331,0.9572192513368984,0.9453357100415924,0.9423648247177658,0.0579150579150579,BAD,0.639753086419753
13,Camino,Placerville,North Central Region Office,El Dorado,10/19/1982,12/31/2050,True,True,2780,Grass,38.753136,-120.7336,"['95667', '95709']",,0.964349376114082,0.9893048128342246,0.9768270944741533,0.9102792632204397,0.9209744503862151,0.8894830659536542,0.166023166023166,BAD,0.9997530864197532
15,Stratford,Stratford,South Central Region Office,Kings,10/29/1982,12/31/2050,True,True,193,Grass,36.157972,-119.85143,"['93246', '93245', '93234', '93202', '93266']",,0.982174688057041,0.9851455733808675,0.9328579916815211,0.9578134284016637,0.9382055852644088,0.9512774806892454,0.0965250965250965,BAD,0.8175308641975308
35,Bishop,Bishop,Southern Region Office,Inyo,2/4/1983,12/31/2050,True,True,4170,Grass,37.358514,-118.40553,"['93515', '93514', '93513', '93512']",,0.9441473559120618,0.9982174688057041,0.8270944741532977,0.9714795008912656,0.9613784907902555,0.9578134284016637,0.3552123552123552,GOOD,0.9181481481481482
39,Parlier,Parlier,South Central Region Office,Fresno,5/23/1983,12/31/2050,True,True,337,Grass,36.597444,-119.50404,"['93662', '93657', '93654', '93618', '93161', '93648']",,0.983957219251337,0.9952465834818776,0.9358288770053476,0.9792038027332145,0.9340463458110517,0.9423648247177658,0.1119691119691119,BAD,0.3958024691358024
41,Calipatria/Mulberry,Calipatria,Southern Region Office,Imperial,7/17/1983,12/31/2050,True,True,-110,Grass,33.042986,-115.41585,"['92281', '92257', '92233']",,0.9441473559120618,0.9708853238265003,0.8526440879382056,0.9530600118835413,0.952465834818776,0.8936423054070113,0.305019305019305,GOOD,0.7369135802469136
43,McArthur,Glenburn,Northern Region Office,Shasta,10/31/1983,12/31/2050,True,True,3310,Grass,41.063767,-121.45602,"['96028', '96056']",,0.9869281045751634,0.9928698752228164,0.9334521687462864,0.9750445632798574,0.9607843137254902,0.946524064171123,0.1351351351351351,BAD,0.8872839506172839
44,U.C. Riverside,Riverside,Southern Region Office,Riverside,6/2/1985,12/31/2050,True,True,1020,Grass,33.964942,-117.33698,"['92522', '92521', '92519', '92518', '92517', '92516', '92515', '92514', '92513', '92509', '92507', '92506', '92505', '92504', '92503', '92502', '92501']",,0.9714795008912656,0.9857397504456328,0.9174093879976233,0.9673202614379085,0.9393939393939394,0.94058229352347,0.1891891891891892,BAD,0.2511111111111111
47,Brentwood,Brentwood,North Central Region Office,Contra Costa,11/18/1985,12/31/2050,True,True,45,Grass,37.928258,-121.6599,"['94548', '94514', '94513']",,0.9079025549613785,0.9893048128342246,0.8823529411764706,0.9560308972073678,0.9001782531194296,0.8995840760546643,0.1889763779527559,BAD,0.4675308641975308
52,San Luis Obispo,San Luis Obispo,Southern Region Office,San Luis Obispo,4/2/1986,12/31/2050,True,True,330,Grass,35.305442,-120.66178,"['93410', '93409', '93408', '93407', '93406', '93405', '93403', '93401']",,0.928698752228164,0.9952465834818776,0.994058229352347,0.9013666072489602,0.9435531788472965,0.8859180035650625,0.1119691119691119,BAD,0.6260493827160494
64,Santa Ynez,Santa Ynez,Southern Region Office,Santa Barbara,11/21/1986,12/31/2050,True,True,490,Grass,34.583144,-120.07924,['93460'],,0.922756981580511,0.9964349376114082,0.9869281045751634,0.9316696375519905,0.9453357100415924,0.9043374925727867,0.1196911196911196,GOOD,1.0
68,Seeley,Seeley,Southern Region Office,Imperial,5/29/1987,12/31/2050,True,True,40,Grass,32.759575,-115.73207,['92273'],,0.8865121806298277,0.988116458704694,0.8722519310754605,0.9316696375519905,0.9387997623291741,0.8966131907308378,0.3474903474903475,BAD,0.7938271604938272
70,Manteca,Manteca,North Central Region Office,San Joaquin,11/12/1987,12/31/2050,True,True,33,Grass,37.834822,-121.22319,"['95337', '95336', '95365', '95320', '95231']",,0.9845513963161022,0.9952465834818776,0.9768270944741533,0.9685086155674391,0.9417706476530006,0.9370172311348782,0.0579150579150579,GOOD,1.0003703703703704
71,Modesto,Modesto,South Central Region Office,Stanislaus,6/25/1987,12/31/2050,True,True,35,Grass,37.645222,-121.18776,"['95397', '95358', '95357', '95356', '95355', '95354', '95353', '95352', '95351', '95350']",,0.9714795008912656,0.9875222816399287,0.976232917409388,0.946524064171123,0.9459298871063577,0.9233511586452763,0.0617760617760617,GOOD,1.0018518518518518
75,Irvine,Irvine,Southern Region Office,Orange,10/7/1987,12/31/2050,True,True,410,Grass,33.68845,-117.72118,"['92710', '92707', '92667', '92650', '92630', '92623', '92620', '92619', '92618', '92616', '92614', '92612', '92606', '92604', '92603', '92602']",,0.9352346999405823,0.9417706476530006,0.9120617944147356,0.8995840760546643,0.9358288770053476,0.8888888888888888,0.2007722007722007,BAD,0.094074074074074
77,Oakville,Napa,North Central Region Office,Napa,3/1/1989,12/31/2050,True,True,190,Grass,38.428475,-122.41021,"['94573', '94574', '94562']",,0.9435531788472965,0.9399881164587047,0.9090909090909091,0.9483065953654188,0.9352346999405823,0.9298871063576946,0.1428571428571428,BAD,0.2548148148148148
78,Pomona,Pomona,Southern Region Office,Los Angeles,3/14/1989,12/31/2050,True,True,730,Grass,34.056589,-117.81307,"['91799', '91797', '91769', '91768', '91767', '91766', '91765']",,0.9174093879976233,0.9934640522875817,0.9714795008912656,0.958407605466429,0.952465834818776,0.9120617944147356,0.1351351351351351,BAD,1.0
80,Fresno State,Fresno,South Central Region Office,Fresno,10/3/1988,12/31/2050,True,True,339,Grass,36.820833,-119.74231,"['93766', '93762', '93761', '93760', '93759', '93755', '93750', '93747', '93745', '93744', '93741', '93740', '93729', '93728', '93727', '93726', '93725', '93724', '93722', '93721', '93720', '93718', '93717', '93716', '93715', '93714', '93711', '93710', '93709', '93708', '93707', '93706', '93705', '93704', '93703', '93702', '93701', '93650']",,0.9637551990493167,0.9916815210932858,0.7819370172311348,0.978015448603684,0.9459298871063577,0.9471182412358883,0.2123552123552123,GOOD,1.0
83,Santa Rosa,Santa Rosa,North Central Region Office,Sonoma,1/1/1990,12/31/2050,True,True,80,Grass,38.40355,-122.79993,"['95409', '95408', '95407', '95406', '95405', '95404', '95403', '95402', '95401']",,0.8425430778371955,0.9863339275103981,0.9292929292929293,0.9590017825311943,0.9536541889483066,0.9132501485442662,0.1621621621621621,GOOD,0.7549382716049383
84,Browns Valley,Marysville,North Central Region Office,Yuba,4/13/1989,12/31/2050,True,True,940,Grass,39.252561,-121.31567,['95918'],,0.9887106357694593,0.982174688057041,0.9738562091503268,0.9732620320855615,0.9548425430778372,0.9554367201426025,0.0926640926640926,GOOD,0.931358024691358
87,Meloland,El Centro,Southern Region Office,Imperial,12/12/1989,12/31/2050,True,True,-50,Grass,32.806183,-115.44626,"['92251', '92250', '92244', '92243']",,0.9340463458110517,0.9138443256090315,0.8698752228163993,0.8787878787878788,0.8918597742127155,0.8781937017231135,0.193050193050193,BAD,0.6574074074074074
90,Alturas,Alturas,Northern Region Office,Modoc,4/23/1989,12/31/2050,True,True,4405,Grass,41.438214,-120.48031,['96101'],,0.982174688057041,0.9916815210932858,0.9019607843137255,0.9714795008912656,0.9560308972073678,0.9679144385026738,0.1467181467181467,GOOD,1.0
91,Tulelake FS,Tulelake,Northern Region Office,Siskiyou,4/12/1989,12/31/2035,True,True,4035,Grass,41.958869,-121.47237,['96134'],,0.9792038027332145,0.988116458704694,0.9797979797979798,0.9714795008912656,0.954248366013072,0.9548425430778372,0.0193050193050193,BAD,0.8614814814814815
99,Santa Monica,Santa Monica,Southern Region Office,Los Angeles,12/11/1992,5/8/2050,True,True,340,Grass,34.044311,-118.47689,"['90411', '90410', '90409', '90408', '90407', '90406', '90405', '90404', '90403', '90402', '90401']",,0.8209399167162403,0.9440809042236764,0.9321832242712671,0.8857822724568709,0.9119571683521713,0.8613920285544319,0.1776061776061776,BAD,0.3309876543209876
103,Windsor,Windsor,North Central Region Office,Sonoma,12/14/1990,12/31/2050,True,True,92,Grass,38.52665,-122.813758,"['95492', '95439', '95448', '95436']",,0.6155674390968509,0.9916815210932858,0.9910873440285205,0.9459298871063577,0.9607843137254902,0.9322638146167558,,GOOD,
104,De Laveaga,Santa Cruz,South Central Region Office,Santa Cruz,9/28/1990,12/31/2050,True,True,300,Grass,36.997444,-121.99676,"['95065', '95064', '95018', '95067', '95063', '95073']",,0.9506833036244801,0.9952465834818776,0.9893048128342246,0.9613784907902555,0.9774212715389186,0.966131907308378,0.1003861003861003,BAD,0.5879012345679012
105,Westlands,Tranquility,South Central Region Office,Fresno,4/17/1992,12/31/2050,True,True,191,Grass,36.634028,-120.38181,"['93668', '93640']",,0.9738562091503268,0.9916815210932858,0.934640522875817,0.9578134284016637,0.9322638146167558,0.9316696375519905,0.1312741312741312,BAD,0.3695061728395061
106,Sanel Valley,Hopland,North Central Region Office,Mendocino,2/1/1991,7/27/2050,True,True,525,Grass,38.982581,-123.08928,['95449'],,0.9102792632204397,0.8853238265002971,0.797979797979798,0.9275103980986334,0.9102792632204397,0.8817587641117053,0.2702702702702703,GOOD,1.000246913580247
107,Santa Barbara,Santa Barbara,Southern Region Office,Santa Barbara,4/7/1993,12/31/2050,True,True,250,Grass,34.437353,-119.73742,"['93199', '93190', '93160', '93150', '93140', '93130', '93129', '93128', '93127', '93126', '93125', '93124', '93123', '93122', '93121', '93120', '93118', '93117', '93116', '93111', '93110', '93109', '93106', '93107', '93105', '93103', '93102', '93101']",,0.7902554961378491,0.9815805109922757,0.9845513963161022,0.8906714200831848,0.8467023172905526,0.8383838383838383,0.1853281853281853,BAD,1.0
113,King City-Oasis Rd.,King City,South Central Region Office,Monterey,6/12/1993,12/31/2050,True,True,540,Grass,36.121083,-121.08457,['93930'],,0.964349376114082,0.9928698752228164,0.9851455733808675,0.946524064171123,0.9554367201426025,0.9251336898395722,0.0926640926640926,GOOD,1.0
114,Arroyo Seco,Soledad,South Central Region Office,Monterey,6/18/1993,12/31/2050,True,True,235,Grass,36.347306,-121.29135,['93927'],,0.9560308972073678,0.9922756981580511,0.9423648247177658,0.9518716577540107,0.9607843137254902,0.9269162210338681,0.1428571428571428,BAD,0.664074074074074
117,Victorville,Victorville,Southern Region Office,San Bernardino,2/1/1994,12/31/2050,True,True,2890,Grass,34.475914,-117.26351,"['92394', '92393', '92392']",,0.9809863339275104,0.9732620320855615,0.8663101604278075,0.9453357100415924,0.9518716577540107,0.9144385026737968,0.193050193050193,BAD,0.4703703703703704
124,Panoche,Firebaugh,South Central Region Office,Fresno,7/27/1995,12/31/2050,True,True,183,Grass,36.890056,-120.73141,"['95043', '93622']",,0.9548425430778372,0.9970291146761735,0.9494949494949495,0.9631610219845514,0.9631610219845514,0.9310754604872252,0.1274131274131274,BAD,1.262222222222222
125,Arvin-Edison,Arvin,South Central Region Office,Kern,3/22/1995,12/31/2050,True,True,500,Grass,35.205583,-118.77841,['93203'],,0.9899396378269618,0.9919517102615694,0.9094567404426559,0.9738430583501007,0.948692152917505,0.9476861167002012,0.0782608695652174,BAD,0.6227160493827161
126,San Benito,Hollister,South Central Region Office,San Benito,6/9/1994,12/31/2050,True,True,340,Grass,36.854833,-121.36275,"['95024', '95023']",,0.9459298871063577,0.9696969696969697,0.9387997623291741,0.9417706476530006,0.94058229352347,0.9055258467023173,0.1119691119691119,BAD,0.3514814814814815
129,Pajaro,Pajaro,South Central Region Office,Monterey,9/13/1995,12/31/2050,True,True,65,Grass,36.902778,-121.74193,"['95077', '95076', '95075', '95019', '95018']",,0.9536541889483066,0.9833630421865716,0.9334521687462864,0.9393939393939394,0.916815210932858,0.916815210932858,0.1119691119691119,BAD,0.3734567901234568
131,Fair Oaks,Fair Oaks,North Central Region Office,Sacramento,4/18/1997,12/31/2050,True,True,265,Grass,38.649964,-121.21887,"['95628', '95038', '95037']",,0.9382055852644088,0.9774212715389186,0.9340463458110517,0.9453357100415924,0.9114676173499703,0.9257278669043375,0.0694980694980695,BAD,0.8490123456790123
139,Winters,Winters,North Central Region Office,Solano,6/15/1998,12/31/2050,True,True,136,Grass,38.501258,-121.97853,"['95694', '95696', '95688', '95620']",,0.0,0.9928698752228164,0.9382055852644088,0.9744503862150921,0.9417706476530006,0.9530600118835413,,BAD,
140,Twitchell Island,Rio Vista,North Central Region Office,Sacramento,10/8/1997,12/31/2050,True,True,0,Grass,38.121739,-121.674455,"['94571', '95641']",,0.9833630421865716,0.9964349376114082,0.9322638146167558,0.9667260843731432,0.9471182412358883,0.9376114081996435,0.2123552123552123,GOOD,1.0
144,Petaluma East,Petaluma,North Central Region Office,Sonoma,8/25/1999,12/31/2050,True,True,97,Grass,38.266428,-122.61646,"['94999', '94975', '94955', '94954', '94953', '94952']",,0.9483065953654188,0.9578134284016637,0.94058229352347,0.9572192513368984,0.9352346999405823,0.9340463458110517,0.1400778210116731,GOOD,1.0
146,Belridge,Lost Hills,South Central Region Office,Kern,10/9/1998,12/31/2050,True,True,410,Grass,35.505833,-119.69114,['93206'],,0.9560308972073678,0.9673202614379085,0.8288770053475936,0.966131907308378,0.9489007724301842,0.9304812834224598,0.1003861003861003,GOOD,0.4291358024691358
147,Otay Lake,Chula Vista,Southern Region Office,San Diego,4/15/1999,12/31/2050,True,True,580,Grass,32.628208,-116.93928,"['91921', '91915', '91914', '91913', '91912', '91911', '91910', '91909', '90910']",,0.8924539512774807,0.983957219251337,0.970291146761735,0.9364230540701128,0.797979797979798,0.7403446226975638,0.3629343629343629,GOOD,0.8904938271604939
150,Miramar,La Jolla,Southern Region Office,San Diego,4/23/1999,12/31/2050,True,True,445,Grass,32.885847,-117.14314,"['92093', '92092', '92039', '92038', '92037']",,0.6916221033868093,0.995840760546643,0.9774212715389186,0.9435531788472965,0.9595959595959596,0.9292929292929293,0.1235521235521235,,0.6522222222222223
151,Ripley,Blythe,Southern Region Office,Riverside,12/19/1998,12/31/2050,True,True,251,Alfalfa,33.532222,-114.63389,"['92228', '92227', '92226', '92225']",,0.9483065953654188,0.9768270944741533,0.7130124777183601,0.928698752228164,0.9578134284016637,0.9203802733214498,0.3590733590733591,GOOD,1.0
152,Camarillo,Camarillo,Southern Region Office,Ventura,1/21/2000,12/31/2050,True,True,130,Grass,34.219386,-118.99244,"['93012', '93011', '93010']",,0.8823529411764706,0.982174688057041,0.9934640522875817,0.9560308972073678,0.9061200237670826,0.9025549613784908,0.0965250965250965,BAD,1.0
153,Escondido SPV,Escondido,Southern Region Office,San Diego,2/1/1999,12/31/2050,True,True,390,Grass,33.08105,-116.9757,"['92046', '92033', '92030', '92029', '92027', '92026', '92025']",,0.732620320855615,0.9904931669637552,0.9679144385026738,0.8758169934640523,0.9132501485442662,0.8241235888294711,0.2857142857142857,,1.0
157,Point San Pedro,San Rafael,North Central Region Office,Marin,10/11/2002,12/31/2050,True,True,5,Grass,37.995478,-122.467656,['94925'],,0.8960190136660725,0.9952465834818776,0.9595959595959596,0.9162210338680927,0.9595959595959596,0.9393939393939394,0.1081081081081081,BAD,0.944567901234568
158,Bennett Valley,Santa Rosa,North Central Region Office,Sonoma,10/1/2000,12/31/2050,True,True,270,Grass,38.419439,-122.65872,"['95409', '95408', '95407', '95406', '95405', '95404', '95403', '95402', '95401']",,0.8882947118241236,0.9590017825311943,0.922756981580511,0.9500891265597148,0.9328579916815211,0.9393939393939394,0.1737451737451737,BAD,0.9230864197530864
160,San Luis Obispo West,San Luis Obispo,Southern Region Office,San Luis Obispo,11/1/2000,12/31/2050,True,True,285,Grass,35.335261,-120.73588,"['93410', '93409', '93408', '93407', '93406', '93405', '93403', '93402', '93401']",,0.8639334521687463,0.9887106357694593,0.9203802733214498,0.8900772430184195,0.8966131907308378,0.9132501485442662,0.2355212355212355,BAD,1.0
163,Atascadero,Atascadero,Southern Region Office,San Luis Obispo,11/21/2000,12/31/2050,True,True,885,Grass,35.472556,-120.64814,"['93465', '93453', '93423', '93422']",,0.8787878787878788,0.9655377302436126,0.9815805109922757,0.8900772430184195,0.8496732026143791,0.9387997623291741,0.471042471042471,GOOD,1.0
165,Sisquoc,Santa Maria,Southern Region Office,Santa Barbara,4/26/2000,12/31/2050,True,True,536,Grass,34.841878,-120.21274,"['93458', '93457', '93456', '93455', '93454']",,0.8407605466428996,0.9685086155674391,0.9578134284016637,0.9215686274509804,0.9197860962566845,0.9090909090909091,0.2393822393822393,GOOD,1.0
170,Concord,Concord,North Central Region Office,Contra Costa,4/6/2001,12/31/2050,True,True,35,Grass,38.015372,-122.02028,"['94529', '94527', '94524', '94523', '94522', '94521', '94520', '94519', '94518']",,0.9589774078478003,0.9423305588585018,0.8751486325802615,0.8912009512485137,0.896551724137931,0.9007134363852557,0.1891891891891892,BAD,0.9360493827160494
171,Union City,Union City,North Central Region Office,Alameda,2/5/2001,12/31/2050,True,True,16,Grass,37.598758,-122.05323,"['94536', '94537', '94538', '94539', '94555', '94587', '94544', '94557']",,0.9043374925727867,0.9215686274509804,0.9215686274509804,0.8882947118241236,0.8496732026143791,0.8568033273915627,0.081081081081081,BAD,0.9162962962962964
173,Torrey Pines,La Jolla,Southern Region Office,San Diego,11/29/2000,12/31/2050,True,True,335,Grass,32.901867,-117.25046,"['92093', '92092', '92039', '92038', '92037']",,0.8502673796791445,0.9667260843731432,0.9637551990493167,0.9292929292929293,0.8799762329174093,0.8496732026143791,0.1814671814671814,,0.9567901234567902
174,Long Beach,Long Beach,Southern Region Office,Los Angeles,9/22/2000,12/31/2050,True,True,17,Grass,33.798697,-118.09479,"['90899', '90888', '90853', '90848', '90847', '90846', '90845', '90842', '90840', '90835', '90834', '90833', '90832', '90831', '90822', '90814', '90813', '90810', '90809', '90808', '90807', '90806', '90805', '90804', '90803', '90802', '90801', '90749', '90747', '90746', '90745']",,0.649435531788473,0.9904931669637552,0.9851455733808675,0.9043374925727867,0.9055258467023173,0.8199643493761141,0.22007722007722,BAD,1.0
175,Palo Verde II,Palo Verde,Southern Region Office,Imperial,1/11/2001,12/31/2050,True,True,230,Alfalfa,33.383697,-114.71921,['92266'],,0.9162210338680927,0.9792038027332145,0.9292929292929293,0.9435531788472965,0.9489007724301842,0.9162210338680927,0.2625482625482625,GOOD,1.0
178,Moraga,Moraga,North Central Region Office,Contra Costa,2/27/2002,12/31/2050,True,True,510,Grass,37.837614,-122.14074,['94595'],,0.9441473559120618,0.9833630421865716,0.9714795008912656,0.9269162210338681,0.8722519310754605,0.9382055852644088,0.305019305019305,,1.0
179,Winchester,Winchester,Southern Region Office,Riverside,2/7/2002,12/31/2050,True,True,1626,Grass,33.663325,-117.09338,"['92596', '92584', '92548']",,0.8715814506539834,0.9363852556480381,0.8061831153388823,0.9131985731272295,0.9024970273483948,0.8246135552913199,0.444015444015444,BAD,0.5344444444444445
181,Westmorland North,Imperial,Southern Region Office,Imperial,4/1/2004,6/17/2050,True,True,-200,Alfalfa,33.078611,-115.66056,"['92227', '92233', '92251', '92281']",,0.9536541889483066,0.9441473559120618,0.863339275103981,0.8847296494355318,0.8978015448603685,0.8918597742127155,0.2231404958677686,BAD,1.0
182,Delano,Delano,South Central Region Office,Tulare,3/21/2002,12/31/2050,True,True,300,Grass,35.833,-119.25596,"['93261', '93250', '93219', '93216', '93215', '93201']",,0.9809863339275104,0.9768270944741533,0.8223410576351753,0.9756387403446227,0.9554367201426025,0.9483065953654188,0.1891891891891892,BAD,0.5170370370370371
184,San Diego II,San Diego,Southern Region Office,San Diego,3/1/2002,12/31/2050,True,True,377,Grass,32.729578,-117.13934,"['92199', '92198', '92197', '92196', '92195', '92194', '92193', '92192', '92191', '92187', '92186', '92184', '92182', '92179', '92178', '92177', '92176', '92175', '92174', '92173', '92172', '92171', '92170', '92169', '92168', '92167', '92166', '92165', '92164', '92163', '92162', '92161', '92160', '92159', '92158', '92155', '92154', '92153', '92152', '92150', '92149', '92147', '92145', '92144', '92143', '92142', '92140', '92139', '92138', '92137', '92136', '92135', '92134', '92133', '92132', '92131', '92130', '92129', '92128', '92127', '92126', '92125', '92124', '92123', '92122', '92121', '92120', '92119', '92118', '92117', '92116', '92115', '92114', '92113', '92112', '92111', '92110', '92109', '92108', '92107', '92106', '92105', '92104', '92103', '92102', '92101']",,0.893048128342246,0.9833630421865716,0.9833630421865716,0.916815210932858,0.9233511586452763,0.9257278669043375,0.2162162162162162,BAD,1.0
187,Black Point,Novato,North Central Region Office,Marin,6/1/2003,12/31/2050,True,True,1,Grass,38.090933,-122.5267,"['94945', '94949']",,0.9560308972073678,0.9904931669637552,0.9578134284016637,0.9429590017825312,0.9185977421271538,0.9334521687462864,0.1614173228346456,GOOD,1.0
191,Pleasanton,Pleasanton,North Central Region Office,Alameda,5/1/2004,12/31/2050,True,True,335,Grass,37.663969,-121.88503,['94588'],,0.9334521687462864,0.9786096256684492,0.9055258467023173,0.9726678550207962,0.922756981580511,0.9328579916815211,0.2131147540983606,BAD,1.0
192,Lake Arrowhead,Lake Arrowhead,Southern Region Office,San Bernardino,3/20/2004,12/31/2050,True,True,5148,Grass,34.255942,-117.21814,['92352'],,0.8829471182412358,0.9595959595959596,0.9328579916815211,0.7973856209150327,0.9441473559120618,0.94058229352347,0.3673469387755102,BAD,1.0
193,Pacific Grove,Pacific Grove,South Central Region Office,Monterey,10/26/2011,12/31/2050,True,True,50,Grass,36.633222,-121.93486,"['93950', '93953', '93942', '93943', '93955']",,0.9281045751633987,0.9840232389251997,0.9353667392883079,0.9455337690631809,0.9513435003631082,0.9375453885257807,0.2467532467532467,GOOD,0.604320987654321
194,Oakdale,Oakdale,South Central Region Office,Stanislaus,11/2/2004,12/31/2050,True,True,165,Grass,37.727194,-120.85086,['95361'],,0.9714795008912656,0.9976232917409388,0.9869281045751634,0.9489007724301842,0.9447415329768271,0.8900772430184195,0.1012658227848101,GOOD,1.0012345679012349
195,Auburn,Auburn,North Central Region Office,Placer,2/16/2005,12/31/2050,True,True,935,Grass,38.887603,-121.10291,"['95603', '95604']",,0.9667260843731432,0.9887106357694593,0.9411764705882353,0.9459298871063577,0.94058229352347,0.9174093879976233,0.1659574468085106,BAD,0.8751851851851852
197,Palmdale,Palmdale,Southern Region Office,Los Angeles,4/6/2005,12/31/2050,True,True,2550,Grass,34.614981,-118.03249,"['93534', '93535', '93543', '93550', '93552', '93591']",,0.9328579916815211,0.9916815210932858,0.9114676173499703,0.8983957219251337,0.9370172311348782,0.9013666072489602,0.2155172413793103,BAD,0.4985185185185185
199,Big Bear Lake,Big Bear Lake,Southern Region Office,San Bernardino,7/19/2005,12/31/2050,True,True,6910,Grass,34.237419,-116.86571,['92315'],,0.7439096850861557,0.964349376114082,0.9708853238265003,0.7118241235888294,0.8092691622103387,0.8603683897801545,0.388646288209607,BAD,1.0
200,Indio 2,Indio,Southern Region Office,Riverside,5/16/2006,12/31/2050,True,True,40,Grass,33.748586,-116.2529,"['92201', '92202', '92203', '92211']",,0.9114149821640903,0.9667063020214031,0.9340071343638525,0.9340071343638525,0.9096313912009513,0.8959571938168847,0.3287671232876712,BAD,0.9793827160493828
202,Nipomo,Nipomo,Southern Region Office,San Luis Obispo,6/27/2006,12/31/2050,True,True,255,Grass,35.028281,-120.56003,"['93420', '93444']",,0.691027926322044,0.9851455733808675,0.9916815210932858,0.8645276292335116,0.8663101604278075,0.8954248366013072,0.1743119266055046,BAD,1.0
204,Santa Clarita,Santa Clarita,Southern Region Office,Los Angeles,12/4/2006,12/31/2050,True,True,1410,Grass,34.426361,-118.51758,['91350'],,0.9655377302436126,0.9946524064171123,0.9203802733214498,0.9304812834224598,0.8413547237076648,0.8146167557932263,0.3867924528301887,BAD,0.2803703703703704
206,Denair II,Denair,South Central Region Office,Stanislaus,4/9/2009,12/31/2050,True,True,150,Grass,37.545869,-120.75453,"['95303', '95316', '95323', '95326', '95382']",,0.9768270944741533,0.9916815210932858,0.9316696375519905,0.9566250742721331,0.9180035650623886,0.9102792632204397,0.25,GOOD,1.000617283950617
207,Borrego Springs,Borrego Springs,Southern Region Office,San Diego,1/4/2008,12/31/2050,True,True,578,Grass,33.268447,-116.36505,['92004'],,0.8484848484848485,0.9281045751633987,0.6981580510992276,0.9007724301841948,0.9090909090909091,0.9257278669043375,0.51,GOOD,1.0
208,La Quinta II,La Quinta,Southern Region Office,Riverside,2/6/2007,12/31/2050,True,True,36,Grass,33.678186,-116.27299,"['92253', '92211', '92210', '92203', '92202', '92201']",,0.8734402852049911,0.9679144385026738,0.9500891265597148,0.9197860962566845,0.9572192513368984,0.9055258467023173,0.3619047619047619,BAD,0.8833333333333333
209,Watsonville West II,Watsonville,South Central Region Office,Santa Cruz,6/13/2007,12/31/2050,True,True,240,Grass,36.913083,-121.82365,"['95077', '95076', '95075', '95019', '95018']",,0.8443256090314915,0.9904931669637552,0.964349376114082,0.88116458704694,0.9197860962566845,0.9453357100415924,0.1884057971014492,BAD,0.8295061728395061
210,Carmel,Carmel,South Central Region Office,Monterey,7/22/2008,12/31/2050,True,True,75,Grass,36.540889,-121.88196,"['93923', '93921', '93953', '93922', '93924']",,0.9037433155080214,0.9934640522875817,0.994058229352347,0.9221628045157457,0.9096850861556744,0.8508615567439097,0.2198952879581152,BAD,0.5379012345679013
212,Hastings Tract East,Dixon,North Central Region Office,Solano,10/20/2009,12/31/2050,True,True,7,Grass,38.278056,-121.74111,"['94571', '95620']",,0.9756387403446227,0.9910873440285205,0.9073083778966132,0.9477124183006536,0.934640522875817,0.8900772430184195,0.2417582417582417,GOOD,0.6132098765432099
213,El Cerrito,El Cerrito,North Central Region Office,Contra Costa,9/24/2013,12/31/2050,True,True,596,Grass,37.931539,-122.302714,"['94530', '94805', '94802', '94808', '94804', '94850', '94708', '94707', '94706', '94806']",,0.8758169934640523,0.9822595704948646,0.9719887955182073,0.972922502334267,0.9477124183006536,0.9253034547152195,0.1937984496124031,BAD,1.0
214,Salinas South II,Salinas,South Central Region Office,Monterey,5/17/2013,12/31/2050,True,True,153,Grass,36.625619,-121.537889,"['93901', '93902', '93905', '93906', '93907', '93908', '93912', '93915', '93962']",,0.8684863523573201,0.9909015715467329,0.9793217535153019,0.9065343258891646,0.8982630272952854,0.8709677419354839,0.1629629629629629,BAD,0.3638271604938272
215,Chatsworth,Chatsworth,Southern Region Office,Los Angeles,9/1/2011,12/31/2050,True,True,1536,Grass,34.291331,-118.57004,"['91326', '91327', '91311', '91344', '91313', '91394']",,0.9015691868758916,0.9671897289586305,0.8730385164051355,0.8808844507845934,0.9008559201141226,0.7710413694721826,0.3677419354838709,GOOD,0.3540740740740741
216,Arleta,Arleta,Southern Region Office,Los Angeles,9/8/2011,12/31/2050,True,True,980,Grass,34.256111,-118.38278,"['91040', '91331', '91352']",,0.9514285714285714,0.86,0.8521428571428571,0.8192857142857143,0.8271428571428572,0.7435714285714285,0.2774193548387096,BAD,1.0
217,Moorpark,Moorpark,Southern Region Office,Ventura,7/3/2014,12/31/2050,True,True,718,Grass,34.269031,-118.849319,"['91360', '91362', '93021', '93065']",,0.8680555555555556,0.9682539682539683,0.9851190476190477,0.8501984126984127,0.939484126984127,0.8125,0.2066115702479339,BAD,0.9222222222222224
218,Thermal South,Thermal,Southern Region Office,Riverside,1/30/2010,12/31/2050,True,True,-150,Grass,33.595694,-116.15811,['92274'],,0.8888888888888888,0.9738562091503268,0.8966131907308378,0.9578134284016637,0.9578134284016637,0.958407605466429,0.2114285714285714,,1.0
219,West Hills,West Hills,Southern Region Office,Los Angeles,9/6/2011,12/31/2050,True,True,926,Grass,34.214197,-118.64477,"['91303', '91304', '91306', '91308', '91311', '91367']",,0.8609129814550642,0.9664764621968617,0.963623395149786,0.8951497860199715,0.956490727532097,0.8459343794579173,0.232258064516129,BAD,0.7080246913580247
220,Palmdale Central,Palmdale,Southern Region Office,Los Angeles,3/23/2011,12/31/2050,True,True,2630,Grass,34.592222,-118.1275,['93550'],,0.8627450980392157,0.9954248366013072,0.9470588235294117,0.9647058823529412,0.9183006535947712,0.8947712418300654,0.2236024844720497,BAD,0.7601234567901235
221,Cadiz Valley,Chambless,Southern Region Office,San Bernardino,11/1/2010,10/10/2050,True,True,155,Grass,34.513611,-115.51056,"['92304', '92332', '92338']",,0.8810457516339869,0.9816993464052287,0.9712418300653595,0.884313725490196,0.788235294117647,0.5379084967320261,0.5868263473053892,BAD,0.6098765432098765
222,Gerber South,Gerber,Northern Region Office,Tehama,8/13/2014,12/31/2050,True,True,246,Grass,40.040006,-122.154539,"['96035', '96055', '96078', '96080', '96090', '96092']",,0.9824198552223371,0.9906928645294726,0.8448810754912099,0.9751809720785936,0.9524301964839711,0.9276111685625646,0.3,GOOD,1.0001234567901234
223,North Hollywood,Universal City,Southern Region Office,Los Angeles,1/30/2018,5/28/2050,True,True,570,Grass,34.142911,-118.36632,"['91602', '91618', '91604']",,0.8467289719626168,0.8467289719626168,0.8878504672897196,0.8616822429906542,0.8635514018691589,0.8242990654205608,0.3636363636363636,BAD,0.8680246913580247
224,Shasta College,Redding,Northern Region Office,Shasta,1/1/2013,12/31/2050,True,True,592,Grass,40.63,-122.31,[''],,0.6781045751633987,0.9926470588235294,0.9125816993464052,0.9272875816993464,0.9272875816993464,0.8366013071895425,,GOOD,
225,Scott Valley,Fort Jones,Northern Region Office,Siskiyou,4/1/2015,12/31/2050,True,True,2733,Grass,41.577778,-122.838125,[''],,0.9836601307189542,0.9847494553376906,0.9869281045751634,0.9596949891067538,0.9477124183006536,0.8932461873638344,0.0714285714285714,GOOD,1.0
226,Woodland,Woodland,North Central Region Office,Yolo,5/12/2011,12/31/2050,True,True,82,Grass,38.672722,-121.81172,"['95695', '95776', '95627']",,0.923784494086728,0.985545335085414,0.9730617608409987,0.9691195795006571,0.9349540078843627,0.919185282522996,0.0880503144654088,BAD,0.9207407407407407
227,Plymouth,Plymouth,North Central Region Office,Amador,11/1/2010,12/31/2050,True,True,1520,Grass,38.508333,-120.79972,"['95669', '95629', '95685']",,0.9601307189542484,0.9777777777777777,0.965359477124183,0.9352941176470588,0.9104575163398693,0.9294117647058824,0.1757575757575757,BAD,0.0104938271604938
228,Diamond Springs,Diamond Springs,North Central Region Office,El Dorado,9/29/2010,12/31/2050,True,True,2050,Grass,38.636111,-120.79305,"['95619', '95623', '95667', '95684']",,0.9810828440965427,0.9830397912589693,0.8701891715590346,0.9693411611219831,0.9517286366601435,0.9452054794520548,0.2634730538922156,GOOD,0.5595061728395062
229,Laguna Seca,Monterey,South Central Region Office,Monterey,1/1/2011,12/31/2050,True,True,320,Grass,36.570111,-121.7865,"['93940', '93955', '93943']",,0.7726942628903413,0.9963689179375453,0.9622367465504721,0.7342047930283224,0.9557007988380537,0.8779956427015251,0.2987012987012987,BAD,0.715679012345679
235,Verona,Nicolaus,North Central Region Office,Sutter,5/18/2012,12/31/2050,True,True,24,Alfalfa,38.797944,-121.61136,"['95659', '95668', '95676', '95836', '95645', '95697', '95776']",,0.9455882352941176,0.9977941176470588,0.9764705882352941,0.975735294117647,0.961764705882353,0.9477941176470588,0.1564625850340136,BAD,1.0007407407407407
236,Macdoel II,Macdoel,Northern Region Office,Siskiyou,4/16/2015,12/31/2050,True,True,4265,Grass,41.802476,-121.996159,"['96058', '96023']",,0.962962962962963,0.9651416122004357,0.9607843137254902,0.9618736383442266,0.9302832244008714,0.9444444444444444,0.1428571428571428,GOOD,1.0
237,Temecula East III,Temecula,Southern Region Office,Riverside,11/1/2012,12/31/2050,True,True,1530,Grass,33.55281,-117.043302,"['92589', '92590', '92591', '92592', '92596', '92593', '92544', '92543']",,0.9453061224489796,0.9942857142857143,0.8963265306122449,0.9493877551020408,0.9053061224489796,0.8546938775510204,0.4195804195804196,,1.0
240,Perris - Menifee,Perris,Southern Region Office,Riverside,5/25/2013,12/31/2050,True,True,1421,Grass,33.76,-117.2,"['92548', '92570', '92572', '92584', '92585', '92586', '92587']",,0.8559533721898418,0.9816819317235637,0.9658617818484596,0.9433805162364696,0.9350541215653622,0.9125728559533722,0.1333333333333333,BAD,1.0
241,San Clemente,San Clemente,Southern Region Office,Orange,7/28/2015,12/31/2050,True,True,224,Grass,33.4625,-117.586111,"['92672', '92673', '92675', '92693']",,0.9139150943396226,0.9186320754716981,0.9127358490566038,0.9693396226415094,0.9669811320754716,0.8726415094339622,0.2181818181818181,BAD,1.0
242,Staten Island,Walnut Grove,North Central Region Office,San Joaquin,11/5/2015,12/31/2050,True,True,-10,Grass,38.192397,-121.510261,"['95686', '95242', '95641', '95690', '95680']",,0.9830065359477124,0.9973856209150327,0.8052287581699347,0.9398692810457516,0.8679738562091504,0.8823529411764706,0.3333333333333333,GOOD,1.0
243,Ryde,Walnut Grove,North Central Region Office,Sacramento,12/16/2015,12/31/2050,True,True,-10,Grass,38.249622,-121.555528,"['95690', '95680', '95615', '95641', '95686']",,0.9372549019607843,0.996078431372549,0.9790849673202614,0.9398692810457516,0.9281045751633987,0.8405228758169935,0.1442307692307692,GOOD,1.0
244,Biggs,Biggs,Northern Region Office,Butte,6/18/2015,12/31/2050,True,True,72,Grass,39.386632,-121.835278,"['95917', '95920', '95932', '95948', '95970']",,0.9517241379310345,0.8793103448275862,0.9482758620689655,0.8931034482758621,0.8758620689655172,0.674712643678161,0.2272727272727272,GOOD,1.0004938271604935
245,Coto de Caza,Coto de Caza,Southern Region Office,Orange,10/7/2015,12/31/2050,True,True,846,Grass,33.621667,-117.585278,"['92678', '92679', '92691', '92692', '92694']",,0.8941176470588236,0.9830065359477124,0.9084967320261438,0.8575163398692811,0.9738562091503268,0.8640522875816994,0.3490566037735849,GOOD,1.0
246,Markleeville,Markleeville,North Central Region Office,Alpine,6/13/2014,12/31/2050,True,True,5517,Grass,38.773409,-119.79193,"['96120', '96133']",,0.26144455747711093,0.9287894201424212,0.9837232960325534,0.9287894201424212,0.9074262461851476,0.884028484231943,,,
247,Jersey Island,Oakley,North Central Region Office,Contra Costa,7/1/2016,12/31/2050,True,True,-12,Grass,38.033386,-121.701247,"['95219', '94511', '94571', '94561', '94513']",,0.8835227272727273,0.9857954545454546,0.8991477272727273,0.9630681818181818,0.9034090909090909,0.5355113636363636,0.6185567010309279,GOOD,1.0
248,Holt,Stockton,North Central Region Office,San Joaquin,7/1/2016,12/31/2050,True,True,-3,Grass,37.932072,-121.396661,"['95206', '95234', '95203', '95219']",,0.9659090909090909,0.9857954545454546,0.9829545454545454,0.9460227272727273,0.9460227272727273,0.875,0.1546391752577319,GOOD,1.0008641975308643
249,Ripon,Manteca,North Central Region Office,San Joaquin,7/1/2016,12/31/2050,True,True,20,Grass,37.755597,-121.266153,"['95337', '95304', '95330', '95336']",,0.9318181818181819,0.9815340909090909,0.796875,0.8721590909090909,0.8991477272727273,0.8465909090909091,0.5051546391752577,GOOD,1.001111111111111
250,Williams,Williams,Northern Region Office,Colusa,8/9/2016,12/31/2050,True,True,69,Grass,39.210667,-122.168889,"['95987', '95955', '95932', '95912']",,0.9774436090225564,0.9729323308270676,0.8932330827067669,0.9593984962406015,0.9142857142857143,0.8406015037593985,0.3020833333333333,GOOD,1.000617283950617
251,Highland,Highland,Southern Region Office,San Bernardino,10/10/2016,12/31/2050,True,True,1275,Grass,34.112042,-117.1857,"['92346', '92374']",,0.8300653594771241,0.9983660130718954,0.9983660130718954,0.8022875816993464,0.9019607843137255,0.8055555555555556,0.1382978723404255,BAD,1.0
252,Soledad II,Soledad,South Central Region Office,Monterey,9/3/2016,12/31/2050,True,True,214,Grass,36.456728,-121.344388,"['93926', '93960']",,0.8985959438377535,0.9765990639625585,0.9453978159126365,0.8876755070202809,0.9266770670826833,0.8642745709828393,0.0947368421052631,GOOD,0.7318518518518519
253,Pescadero,Pescadero,North Central Region Office,San Mateo,8/24/2017,12/31/2050,True,True,47,Grass,37.255333,-122.3708,"['94060', '94074', '94019', '94062', '95017', '95060']",,0.8426294820717132,0.9760956175298805,0.9840637450199203,0.9083665338645418,0.898406374501992,0.9103585657370518,0.25,BAD,0.8396296296296296
254,Oakland Metro,Oakland,North Central Region Office,Alameda,3/12/2018,12/31/2050,True,True,14,Grass,37.718167,-122.197111,"['94577', '94579', '94603', '94621', '94502']",,0.9520697167755992,0.9433551198257081,0.7516339869281046,0.9520697167755992,0.9760348583877996,0.9106753812636166,0.1948051948051948,BAD,1.0
256,Lancaster,Lancaster,Southern Region Office,Los Angeles,7/26/2018,12/31/2050,True,True,2340,Alfalfa,34.759475,-117.991997,"['93523', '93524', '93535', '93560']",,0.868632707774799,0.9973190348525469,0.5924932975871313,0.6246648793565683,0.967828418230563,0.6568364611260054,0.547945205479452,BAD,1.0
258,Lemon Cove,Lemon Cove,South Central Region Office,Tulare,11/15/2018,12/31/2050,True,True,498,Grass,36.376917,-119.037972,"['93221', '93244', '93286']",,0.9967320261437909,0.9509803921568627,0.9052287581699346,0.9869281045751634,0.9640522875816994,0.9705882352941176,0.1304347826086956,BAD,0.587283950617284
259,Ferndale Plain,Ferndale,Northern Region Office,Humboldt,8/5/2019,12/30/2050,True,True,21,Grass,40.604467,-124.243186,"['95536', '95540', '95551']",,0.9904761904761905,0.9761904761904762,0.9809523809523809,0.9857142857142858,0.8857142857142857,0.9571428571428572,0.3,GOOD,1.0007407407407407
260,Montague,Montague,Northern Region Office,Siskiyou,9/20/2019,12/31/2050,True,True,2663,Grass,41.798331,-122.463425,"['96038', '96044', '96064', '96097']",,0.9695121951219512,0.060975609756097615,0.9390243902439024,0.9512195121951219,0.8170731707317074,0.04268292682926833,0.4067796610169492,BAD,1.0
261,Gazelle,Gazelle,Northern Region Office,Siskiyou,9/18/2019,12/31/2050,True,True,2743,Grass,41.533989,-122.532279,"['96034', '96038', '96064', '96094']",,0.9879518072289156,0.9939759036144579,0.9457831325301205,0.963855421686747,0.9337349397590361,0.8855421686746988,0.1694915254237288,GOOD,1.0
262,Linden,Linden,North Central Region Office,San Joaquin,2/26/2020,12/31/2050,True,True,111,Grass,38.065692,-121.071747,"['95240', '95236', '95227', '95237', '95252', '95212', '95215']",,0.9673202614379085,0.9934640522875817,0.9934640522875817,0.9281045751633987,0.9281045751633987,0.9281045751633987,0.0363636363636363,GOOD,1.0
263,Smith River,Crescent City,Northern Region Office,Del Norte,10/7/2020,12/31/2050,True,True,22,Grass,41.894592,-124.165043,"['95532', '95567']",,,,,,,,,GOOD,
264,Sierra Valley Center,Portola,Northern Region Office,Plumas,10/28/2020,12/31/2050,True,True,4898,Grass,39.777452,-120.273609,"['96106', '96118', '96122', '96129', '96135']",,,,,,,,0.2127659574468085,BAD,1.001111111111111
265,Paso Robles,Paso Robles,Southern Region Office,San Luis Obispo,3/1/2022,12/31/2050,True,True,764,Grass,35.692266,-120.64855,"['93426', '93446', '93447', '93451', '93465']",,0.9840848806366048,0.9946949602122016,0.9071618037135278,0.9628647214854112,0.9522546419098143,0.9071618037135278,0.1724137931034483,GOOD,1.0
266,Shandon,Shandon,Southern Region Office,San Luis Obispo,8/1/2022,12/31/2050,True,True,1105,Grass,35.643787,-120.403229,"['93461', '93432', '93447']",,0.96113074204947,0.9858657243816256,0.88339222614841,0.9434628975265018,0.92226148409894,0.8939929328621908,0.25,GOOD,1.0
267,Johnstonville,Johnstonville,Northern Region Office,Lassen,4/27/2022,12/31/2050,True,True,4112,Grass,40.364578,-120.559397,"['96114', '96128', '96127']",,0.9708222811671088,0.9389920424403184,0.9257294429708224,0.946949602122016,0.9522546419098143,0.8726790450928382,0.2142857142857142,GOOD,0.9639506172839506
268,Nubieber,Nubieber,Northern Region Office,Lassen,11/22/2023,12/31/2030,True,True,4122,Grass,41.1059,-121.1657,"['96068', '96009', '96056', '96054', '96006']",,1.0,0.971830985915493,0.943661971830986,0.971830985915493,0.971830985915493,0.9859154929577464,0.0,,
